ONEWEB-0410             
1 51622U 22012A   26199.42703515 -.00000159  00000+0 -44324-3 0  9993
2 51622  87.9160 359.6454 0001562  49.0029 311.1238 13.17649184217815
ONEWEB-0411             
1 51623U 22012B   26199.09083008 -.00000557  00000+0 -16318-2 0  9998
2 51623  87.8822  30.1096 0002337  94.9455 265.1939 13.10373874213338
ONEWEB-0415             
1 51624U 22012C   26199.08743497 -.00000411  00000+0 -12140-2 0  9991
2 51624  87.8818  30.1079 0002134  87.0884 273.0487 13.10370291213335
ONEWEB-0416             
1 51625U 22012D   26199.48110161 -.00000640  00000+0 -18703-2 0  9997
2 51625  87.8812  30.0460 0002158  83.6241 276.5132 13.10374614213426
ONEWEB-0422             
1 51626U 22012E   26198.98154427  .00000089  00000+0  19634-3 0  9995
2 51626  87.9159 359.7341 0001986 113.6290 246.5050 13.17648504217864
ONEWEB-0423             
1 51627U 22012F   26199.43041673  .00000084  00000+0  18433-3 0  9996
2 51627  87.9150 359.6484 0001770  94.6143 265.5191 13.17648734217816
ONEWEB-0425             
1 51628U 22012G   26199.49123742 -.00002235  00000+0 -64380-2 0  9994
2 51628  87.8819  30.0279 0002166  75.7043 284.4325 13.10400242213424
ONEWEB-0428             
1 51629U 22012H   26199.24184361 -.00000419  00000+0 -12366-2 0  9991
2 51629  87.8811  30.0844 0001802  88.6192 271.5142 13.10373407213357
ONEWEB-0431             
1 51630U 22012J   26199.51660639  .00000618  00000+0  17343-2 0  9999
2 51630  87.8819  30.0224 0002420  94.9511 265.1892 13.10373647213448
ONEWEB-0434             
1 51631U 22012K   26199.49482737 -.00000255  00000+0 -76585-3 0  9991
2 51631  87.8824  30.0535 0001466  69.3472 290.7813 13.10377297213421
ONEWEB-0435             
1 51632U 22012L   26199.50146856  .00000049  00000+0  10366-3 0  9997
2 51632  87.8818  30.0355 0001921  97.8896 262.2450 13.10379557213418
ONEWEB-0436             
1 51633U 22012M   26199.42197803  .00000009  00000+0 -96607-5 0  9998
2 51633  87.9156 359.6340 0001952  98.9827 261.1526 13.17647220217798
ONEWEB-0438             
1 51634U 22012N   26199.25710797 -.00000720  00000+0 -20989-2 0  9991
2 51634  87.8815  30.0885 0001781  81.1733 278.9596 13.10374898213413
ONEWEB-0439             
1 51635U 22012P   26199.48958387 -.00000476  00000+0 -13985-2 0  9992
2 51635  87.8819  30.0296 0001744  86.8944 273.2383 13.10376769213421
ONEWEB-0442             
1 51636U 22012Q   26199.41438709  .00000031  00000+0  45434-4 0  9998
2 51636  87.9148 359.6659 0001631  75.1175 285.0137 13.17650818217781
ONEWEB-0443             
1 51637U 22012R   26198.97817037 -.00000017  00000+0 -77773-4 0  9991
2 51637  87.9149 359.7535 0001544  99.7378 260.3928 13.17647850217772
ONEWEB-0444             
1 51638U 22012S   26199.47939584 -.00000600  00000+0 -17551-2 0  9994
2 51638  87.8819  30.0302 0001658  91.6983 268.4334 13.10371845213436
ONEWEB-0445             
1 51639U 22012T   26199.49975950 -.00000116  00000+0 -36913-3 0  9990
2 51639  87.8826  30.0164 0001921  85.8978 274.2369 13.10378654213442
ONEWEB-0446             
1 51640U 22012U   26199.24862400 -.00000616  00000+0 -18024-2 0  9997
2 51640  87.8815  30.0933 0002099  82.1971 277.9395 13.10371516213399
ONEWEB-0448             
1 51641U 22012V   26199.48278750 -.00000786  00000+0 -22874-2 0  9999
2 51641  87.8813  30.0419 0001794  88.5500 271.5833 13.10373052213390
ONEWEB-0449             
1 51642U 22012W   26199.48787941 -.00000635  00000+0 -18549-2 0  9994
2 51642  87.8821  30.0284 0001785  69.0180 291.1138 13.10374562213403
ONEWEB-0451             
1 51643U 22012X   26199.41859441 -.00000220  00000+0 -59935-3 0  9998
2 51643  87.9159 359.6332 0001677  89.6445 270.4879 13.17648587217779
ONEWEB-0452             
1 51644U 22012Y   26199.41691553  .00000053  00000+0  10213-3 0  9995
2 51644  87.9147 359.6674 0001567  93.3521 266.7790 13.17647675217789
ONEWEB-0456             
1 51646U 22012AA  26199.26728986 -.00000201  00000+0 -61077-3 0  9992
2 51646  87.8832  30.0618 0001828  92.7700 267.3637 13.10375074213418
ONEWEB-0457             
1 51647U 22012AB  26199.24509777 -.00000525  00000+0 -15398-2 0  9999
2 51647  87.8815  30.0813 0002056  78.7458 281.3901 13.10371587213410
ONEWEB-0458             
1 51648U 22012AC  26199.49552475 -.00000222  00000+0 -67184-3 0  9995
2 51648  87.8823  30.0201 0001617  87.6286 272.5027 13.10376267213401
ONEWEB-0461             
1 51649U 22012AD  26199.51478726 -.00000146  00000+0 -40969-3 0  9992
2 51649  87.9160 359.6275 0001913  89.6580 270.4770 13.17648641218015
ONEWEB-0463             
1 51650U 22012AE  26199.42028664 -.00000167  00000+0 -46223-3 0  9998
2 51650  87.9149 359.6659 0001979  89.9917 270.1441 13.17649010217785
ONEWEB-0464             
1 51651U 22012AF  26199.03483980 -.00000239  00000+0 -72165-3 0  9996
2 51651  87.8816  30.1328 0001616  95.2991 264.8321 13.10375658213364
ONEWEB-0468             
1 51652U 22012AG  26199.49806286 -.00000086  00000+0 -28363-3 0  9996
2 51652  87.8816  30.0335 0001717  95.3954 264.7369 13.10375231213407
